{
  "type": "FeatureCollection",
  "features": [
    {
      "type": "Feature",
      "properties": {
        "norad_id": 42989,
        "name": "SKYSAT-C9",
        "group": "resource",
        "lat": -69.15277239913785,
        "lon": -74.2869617460853,
        "alt_km": 471.53187371343483,
        "timestamp": "2025-12-21T09:37:22.305961+00:00",
        "meta_object_name": "SKYSAT-C9",
        "meta_object_id": "2017-068C",
        "meta_epoch": "2025-12-21T03:50:47.633856",
        "meta_mean_motion": 15.36245357,
        "meta_eccentricity": 0.0010442,
        "meta_inclination": 97.4194,
        "meta_ra_of_asc_node": 125.4816,
        "meta_arg_of_pericenter": 60.965,
        "meta_mean_anomaly": 299.2639,
        "meta_ephemeris_type": 0,
        "meta_classification_type": "U",
        "meta_norad_cat_id": 42989,
        "meta_element_set_no": 999,
        "meta_rev_at_epoch": 45537,
        "meta_bstar": 0.00025806,
        "meta_mean_motion_dot": 9.051e-05,
        "meta_mean_motion_ddot": 0,
        "tle_line1": "1 42989U 17068C   25355.16027354  .00009051  00000+0  25806-3 0  9990",
        "tle_line2": "2 42989  97.4194 125.4816 0010442  60.9650 299.2639 15.36245357455377"
      },
      "geometry": {
        "type": "Point",
        "coordinates": [
          -74.2869617460853,
          -69.15277239913785
        ]
      }
    },
    {
      "type": "Feature",
      "properties": {
        "norad_id": 42990,
        "name": "SKYSAT-C8",
        "group": "resource",
        "lat": 55.83171919233271,
        "lon": -43.47737644421316,
        "alt_km": 462.018798217573,
        "timestamp": "2025-12-21T09:37:22.305972+00:00",
        "meta_object_name": "SKYSAT-C8",
        "meta_object_id": "2017-068D",
        "meta_epoch": "2025-12-21T02:49:14.051136",
        "meta_mean_motion": 15.33089756,
        "meta_eccentricity": 0.0001045,
        "meta_inclination": 97.4289,
        "meta_ra_of_asc_node": 125.1551,
        "meta_arg_of_pericenter": 299.6918,
        "meta_mean_anomaly": 60.422,
        "meta_ephemeris_type": 0,
        "meta_classification_type": "U",
        "meta_norad_cat_id": 42990,
        "meta_element_set_no": 999,
        "meta_rev_at_epoch": 45499,
        "meta_bstar": 0.00026037,
        "meta_mean_motion_dot": 8.244e-05,
        "meta_mean_motion_ddot": 0,
        "tle_line1": "1 42990U 17068D   25355.11752374  .00008244  00000+0  26037-3 0  9994",
        "tle_line2": "2 42990  97.4289 125.1551 0001045 299.6918  60.4220 15.33089756454991"
      },
      "geometry": {
        "type": "Point",
        "coordinates": [
          -43.47737644421316,
          55.83171919233271
        ]
      }
    },
    {
      "type": "Feature",
      "properties": {
        "norad_id": 42991,
        "name": "SKYSAT-C7",
        "group": "resource",
        "lat": -39.58340533654674,
        "lon": 132.66746202256655,
        "alt_km": 473.2400209684474,
        "timestamp": "2025-12-21T09:37:22.305982+00:00",
        "meta_object_name": "SKYSAT-C7",
        "meta_object_id": "2017-068E",
        "meta_epoch": "2025-12-20T21:15:36.514656",
        "meta_mean_motion": 15.32485179,
        "meta_eccentricity": 0.000715,
        "meta_inclination": 97.4296,
        "meta_ra_of_asc_node": 125.9567,
        "meta_arg_of_pericenter": 31.5746,
        "meta_mean_anomaly": 328.5923,
        "meta_ephemeris_type": 0,
        "meta_classification_type": "U",
        "meta_norad_cat_id": 42991,
        "meta_element_set_no": 999,
        "meta_rev_at_epoch": 45502,
        "meta_bstar": 0.00024119,
        "meta_mean_motion_dot": 7.492e-05,
        "meta_mean_motion_ddot": 0,
        "tle_line1": "1 42991U 17068E   25354.88583929  .00007492  00000+0  24119-3 0  9999",
        "tle_line2": "2 42991  97.4296 125.9567 0007150  31.5746 328.5923 15.32485179455021"
      },
      "geometry": {
        "type": "Point",
        "coordinates": [
          132.66746202256655,
          -39.58340533654674
        ]
      }
    },
    {
      "type": "Feature",
      "properties": {
        "norad_id": 42992,
        "name": "SKYSAT-C6",
        "group": "resource",
        "lat": 50.297154543984334,
        "lon": 117.85914205465761,
        "alt_km": 462.98532351900394,
        "timestamp": "2025-12-21T09:37:22.305992+00:00",
        "meta_object_name": "SKYSAT-C6",
        "meta_object_id": "2017-068F",
        "meta_epoch": "2025-12-21T03:07:47.398944",
        "meta_mean_motion": 15.31646013,
        "meta_eccentricity": 0.0004952,
        "meta_inclination": 97.4327,
        "meta_ra_of_asc_node": 126.6341,
        "meta_arg_of_pericenter": 60.6728,
        "meta_mean_anomaly": 299.5008,
        "meta_ephemeris_type": 0,
        "meta_classification_type": "U",
        "meta_norad_cat_id": 42992,
        "meta_element_set_no": 999,
        "meta_rev_at_epoch": 45504,
        "meta_bstar": 0.00024393,
        "meta_mean_motion_dot": 7.378e-05,
        "meta_mean_motion_ddot": 0,
        "tle_line1": "1 42992U 17068F   25355.13040971  .00007378  00000+0  24393-3 0  9991",
        "tle_line2": "2 42992  97.4327 126.6341 0004952  60.6728 299.5008 15.31646013455043"
      },
      "geometry": {
        "type": "Point",
        "coordinates": [
          117.85914205465761,
          50.297154543984334
        ]
      }
    },
    {
      "type": "Feature",
      "properties": {
        "norad_id": 43111,
        "name": "CARTOSAT-2F",
        "group": "resource",
        "lat": 45.32135244432845,
        "lon": -119.51657206353467,
        "alt_km": 503.5435016077108,
        "timestamp": "2025-12-21T09:37:22.306002+00:00",
        "meta_object_name": "CARTOSAT-2F",
        "meta_object_id": "2018-004A",
        "meta_epoch": "2025-12-21T04:17:32.107776",
        "meta_mean_motion": 15.19196889,
        "meta_eccentricity": 0.0001356,
        "meta_inclination": 97.4309,
        "meta_ra_of_asc_node": 52.6804,
        "meta_arg_of_pericenter": 114.2715,
        "meta_mean_anomaly": 245.8662,
        "meta_ephemeris_type": 0,
        "meta_classification_type": "U",
        "meta_norad_cat_id": 43111,
        "meta_element_set_no": 999,
        "meta_rev_at_epoch": 44030,
        "meta_bstar": 0.00012293,
        "meta_mean_motion_dot": 2.519e-05,
        "meta_mean_motion_ddot": 0,
        "tle_line1": "1 43111U 18004A   25355.17884384  .00002519  00000+0  12293-3 0  9992",
        "tle_line2": "2 43111  97.4309  52.6804 0001356 114.2715 245.8662 15.19196889440306"
      },
      "geometry": {
        "type": "Point",
        "coordinates": [
          -119.51657206353467,
          45.32135244432845
        ]
      }
    },
    {
      "type": "Feature",
      "properties": {
        "norad_id": 43259,
        "name": "GAOFEN-1 02",
        "group": "resource",
        "lat": 6.932795325736066,
        "lon": 52.20392316249873,
        "alt_km": 644.3306898895653,
        "timestamp": "2025-12-21T09:37:22.306013+00:00",
        "meta_object_name": "GAOFEN-1 02",
        "meta_object_id": "2018-031A",
        "meta_epoch": "2025-12-21T04:42:41.928768",
        "meta_mean_motion": 14.76431332,
        "meta_eccentricity": 0.0002366,
        "meta_inclination": 98.08,
        "meta_ra_of_asc_node": 52.989,
        "meta_arg_of_pericenter": 184.2572,
        "meta_mean_anomaly": 175.8617,
        "meta_ephemeris_type": 0,
        "meta_classification_type": "U",
        "meta_norad_cat_id": 43259,
        "meta_element_set_no": 999,
        "meta_rev_at_epoch": 41643,
        "meta_bstar": 0.00011813,
        "meta_mean_motion_dot": 7.7e-06,
        "meta_mean_motion_ddot": 0,
        "tle_line1": "1 43259U 18031A   25355.19631862  .00000770  00000+0  11813-3 0  9992",
        "tle_line2": "2 43259  98.0800  52.9890 0002366 184.2572 175.8617 14.76431332416436"
      },
      "geometry": {
        "type": "Point",
        "coordinates": [
          52.20392316249873,
          6.932795325736066
        ]
      }
    },
    {
      "type": "Feature",
      "properties": {
        "norad_id": 43260,
        "name": "GAOFEN-1 03",
        "group": "resource",
        "lat": 56.11340831641535,
        "lon": -114.72181632708546,
        "alt_km": 636.2571356136796,
        "timestamp": "2025-12-21T09:37:22.306023+00:00",
        "meta_object_name": "GAOFEN-1 03",
        "meta_object_id": "2018-031B",
        "meta_epoch": "2025-12-21T04:11:17.659680",
        "meta_mean_motion": 14.76452351,
        "meta_eccentricity": 0.0001701,
        "meta_inclination": 98.0787,
        "meta_ra_of_asc_node": 52.8426,
        "meta_arg_of_pericenter": 277.4701,
        "meta_mean_anomaly": 82.6315,
        "meta_ephemeris_type": 0,
        "meta_classification_type": "U",
        "meta_norad_cat_id": 43260,
        "meta_element_set_no": 999,
        "meta_rev_at_epoch": 41642,
        "meta_bstar": 9.7034e-05,
        "meta_mean_motion_dot": 6.23e-06,
        "meta_mean_motion_ddot": 0,
        "tle_line1": "1 43260U 18031B   25355.17450995  .00000623  00000+0  97034-4 0  9995",
        "tle_line2": "2 43260  98.0787  52.8426 0001701 277.4701  82.6315 14.76452351416420"
      },
      "geometry": {
        "type": "Point",
        "coordinates": [
          -114.72181632708546,
          56.11340831641535
        ]
      }
    }
  ]
}